[{"OBJECT_NAME":"STARLINK-34396","OBJECT_ID":"2025-129AA","EPOCH":"2026-03-09T22:00:01.999584","MEAN_MOTION":14.98310079,"ECCENTRICITY":0.00035428,"INCLINATION":70.0003,"RA_OF_ASC_NODE":73.9756,"ARG_OF_PERICENTER":269.9898,"MEAN_ANOMALY":273.6139,"EPHEMERIS_TYPE":0,"CLASSIFICATION_TYPE":"U","NORAD_CAT_ID":64436,"ELEMENT_SET_NO":999,"REV_AT_EPOCH":576,"BSTAR":0.0049434294,"MEAN_MOTION_DOT":0.00059365,"MEAN_MOTION_DDOT":0},{"OBJECT_NAME":"SL-8 DEB","OBJECT_ID":"1971-114C","EPOCH":"2026-03-09T10:06:38.914272","MEAN_MOTION":14.97936297,"ECCENTRICITY":0.00069633,"INCLINATION":74.0033,"RA_OF_ASC_NODE":186.861,"ARG_OF_PERICENTER":298.1447,"MEAN_ANOMALY":61.9034,"EPHEMERIS_TYPE":0,"CLASSIFICATION_TYPE":"U","NORAD_CAT_ID":5778,"ELEMENT_SET_NO":999,"REV_AT_EPOCH":88447,"BSTAR":0.0010014796,"MEAN_MOTION_DOT":0.00011794,"MEAN_MOTION_DDOT":0}]
